STARLINK-30494          
1 57970U 23151G   26068.36049035 -.00001272  00000+0 -35691-4 0  9993
2 57970  43.0027 192.4566 0001155 241.5536 118.5200 15.28417441137406
STARLINK-34871          
1 65217U 25176V   26068.55394321  .00025134  00000+0  85814-3 0  9999
2 65217  53.1607 153.0749 0001631  54.5475 305.5678 15.30188645 33107
